(CREATED BY      : SDUNA                                   )
(DATE            : 29.06.2026 , 14:22                      )
(PARTNAME        : PORBLOCK_SDU_V2.PRT                     )
N10 G17 G21 G94 G90
 
(FLOOR_FACING , TOOL : MILL)
 
N12 T01 M6
N14 G53
N16 G17 G0 G90 X91.346 Y88.644 S53052 M3
N18 G43 Z5.1 H1
N20 Z3.1
N22 G94 G3 X91.346 Y88.644 Z2.211 I-2.446 J-1.144 F1000.
N24 X91.346 Y88.644 Z1.322 I-2.446 J-1.144
N26 X91.346 Y88.644 Z0.432 I-2.446 J-1.144
N28 X86.2 Y87.5 Z0.05 R2.7
N30 G1 Y86.2
N32 X88.8
N34 Y88.8
N36 X86.2
N38 Y87.5
N40 X83.5
N42 Y83.5
N44 X91.5
N46 Y91.5
N48 X83.5
N50 Y87.5
N52 X79.
N54 Y79.
N56 X96.
N58 Y96.
N60 X79.
N62 Y87.5
N64 X74.5
N66 Y74.5
N68 X100.5
N70 Y100.5
N72 X74.5
N74 Y87.5
N76 X70.
N78 Y70.
N80 X105.
N82 Y105.
N84 X70.
N86 Y87.5
N88 X65.5
N90 Y65.5
N92 X109.5
N94 Y109.5
N96 X65.5
N98 Y87.5
N100 X61.
N102 Y61.
N104 X114.
N106 Y114.
N108 X61.
N110 Y87.5
N112 X56.5
N114 Y56.5
N116 X118.5
N118 Y118.5
N120 X56.5
N122 Y87.5
N124 X52.
N126 Y52.
N128 X123.
N130 Y123.
N132 X52.
N134 Y87.5
N136 X47.5
N138 Y47.5
N140 X127.5
N142 Y127.5
N144 X47.5
N146 Y87.5
N148 X43.
N150 Y43.
N152 X132.
N154 Y132.
N156 X43.
N158 Y87.5
N160 X38.5
N162 Y38.5
N164 X136.5
N166 Y136.5
N168 X38.5
N170 Y87.5
N172 X34.
N174 Y34.
N176 X141.
N178 Y141.
N180 X34.
N182 Y87.5
N184 X29.5
N186 Y29.5
N188 X145.5
N190 Y145.5
N192 X29.5
N194 Y87.5
N196 X25.
N198 Y25.
N200 X150.
N202 Y150.
N204 X25.
N206 Y87.5
N208 X20.5
N210 Y20.5
N212 X154.5
N214 Y154.5
N216 X20.5
N218 Y87.5
N220 X16.
N222 Y16.
N224 X159.
N226 Y159.
N228 X16.
N230 Y87.5
N232 X11.5
N234 Y11.5
N236 X163.5
N238 Y163.5
N240 X11.5
N242 Y87.5
N244 X7.
N246 Y7.
N248 X168.
N250 Y168.
N252 X7.
N254 Y87.5
N256 X2.5
N258 Y2.5
N260 X172.5
N262 Y172.5
N264 X2.5
N266 Y87.5
N268 X-2.
N270 Y0.25
N272 Y-2.
N274 X177.
N276 Y177.
N278 X-2.
N280 Y87.5
N282 X-6.5
N284 Y0.25
N286 Y-6.5
N288 X181.5
N290 Y181.5
N292 X-6.5
N294 Y87.5
N296 X-11.
N298 Y-11.
N300 X186.
N302 Y186.
N304 X-11.
N306 Y87.5
N308 Y86.5
N310 G2 X-12.5 Y85. R1.5
N312 G1 X-18.5
N314 Z3.05
N316 G0 Z5.1
N318 X91.346 Y88.644
N320 Z3.05
N322 G3 X91.346 Y88.644 Z2.161 I-2.446 J-1.144
N324 X91.346 Y88.644 Z1.272 I-2.446 J-1.144
N326 X91.346 Y88.644 Z0.383 I-2.446 J-1.144
N328 X86.2 Y87.5 Z0. R2.7
N330 G1 Y86.2
N332 X88.8
N334 Y88.8
N336 X86.2
N338 Y87.5
N340 X83.5
N342 Y83.5
N344 X91.5
N346 Y91.5
N348 X83.5
N350 Y87.5
N352 X79.
N354 Y79.
N356 X96.
N358 Y96.
N360 X79.
N362 Y87.5
N364 X74.5
N366 Y74.5
N368 X100.5
N370 Y100.5
N372 X74.5
N374 Y87.5
N376 X70.
N378 Y70.
N380 X105.
N382 Y105.
N384 X70.
N386 Y87.5
N388 X65.5
N390 Y65.5
N392 X109.5
N394 Y109.5
N396 X65.5
N398 Y87.5
N400 X61.
N402 Y61.
N404 X114.
N406 Y114.
N408 X61.
N410 Y87.5
N412 X56.5
N414 Y56.5
N416 X118.5
N418 Y118.5
N420 X56.5
N422 Y87.5
N424 X52.
N426 Y52.
N428 X123.
N430 Y123.
N432 X52.
N434 Y87.5
N436 X47.5
N438 Y47.5
N440 X127.5
N442 Y127.5
N444 X47.5
N446 Y87.5
N448 X43.
N450 Y43.
N452 X132.
N454 Y132.
N456 X43.
N458 Y87.5
N460 X38.5
N462 Y38.5
N464 X136.5
N466 Y136.5
N468 X38.5
N470 Y87.5
N472 X34.
N474 Y34.
N476 X141.
N478 Y141.
N480 X34.
N482 Y87.5
N484 X29.5
N486 Y29.5
N488 X145.5
N490 Y145.5
N492 X29.5
N494 Y87.5
N496 X25.
N498 Y25.
N500 X150.
N502 Y150.
N504 X25.
N506 Y87.5
N508 X20.5
N510 Y20.5
N512 X154.5
N514 Y154.5
N516 X20.5
N518 Y87.5
N520 X16.
N522 Y16.
N524 X159.
N526 Y159.
N528 X16.
N530 Y87.5
N532 X11.5
N534 Y11.5
N536 X163.5
N538 Y163.5
N540 X11.5
N542 Y87.5
N544 X7.
N546 Y7.
N548 X168.
N550 Y168.
N552 X7.
N554 Y87.5
N556 X2.5
N558 Y2.5
N560 X172.5
N562 Y172.5
N564 X2.5
N566 Y87.5
N568 X-2.
N570 Y0.25
N572 Y-2.
N574 X177.
N576 Y177.
N578 X-2.
N580 Y87.5
N582 X-6.5
N584 Y0.25
N586 Y-6.5
N588 X181.5
N590 Y181.5
N592 X-6.5
N594 Y87.5
N596 X-11.
N598 Y-11.
N600 X186.
N602 Y186.
N604 X-11.
N606 Y87.5
N608 Y86.5
N610 G2 X-12.5 Y85. R1.5
N612 G1 X-18.5
N614 Z3.
N616 G0 Z5.1
N618 M5
N620 M2
