(CREATED BY      : SDUNA                                   )
(DATE            : 29.06.2026 , 13:40                      )
(PARTNAME        : PORBLOCK_SDU_V2.PRT                     )
N10 G17 G21 G94 G90
 
(FLOOR_FACING , TOOL : MILL)
 
N12 T01 M6
N14 G53
N16 G17 G0 G90 X-5. Y181.098 S1061 M3
N18 G43 Z13. H1
N20 Z3.05
N22 G94 G1 Z0.05 F100.
N24 Y175.5
N26 G3 X-3.5 Y174. R1.5
N28 G1 X178.5
N30 G3 X180. Y175.5 R1.5
N32 G1 Y181.098
N34 Z3.05
N36 G0 Z13.
N38 X-6.5 Y171.087
N40 Z3.05
N42 G1 Z0.05
N44 X-5.
N46 G3 X-3.5 Y169.587 R1.5
N48 G1 X178.5
N50 G3 X180. Y171.087 R1.5
N52 G1 X181.5
N54 Z3.05
N56 G0 Z13.
N58 X-6.5 Y166.674
N60 Z3.05
N62 G1 Z0.05
N64 X-5.
N66 G3 X-3.5 Y165.174 R1.5
N68 G1 X178.5
N70 G3 X180. Y166.674 R1.5
N72 G1 X181.5
N74 Z3.05
N76 G0 Z13.
N78 X-6.5 Y162.261
N80 Z3.05
N82 G1 Z0.05
N84 X-5.
N86 G3 X-3.5 Y160.761 R1.5
N88 G1 X178.5
N90 G3 X180. Y162.261 R1.5
N92 G1 X181.5
N94 Z3.05
N96 G0 Z13.
N98 X-6.5 Y157.848
N100 Z3.05
N102 G1 Z0.05
N104 X-5.
N106 G3 X-3.5 Y156.348 R1.5
N108 G1 X178.5
N110 G3 X180. Y157.848 R1.5
N112 G1 X181.5
N114 Z3.05
N116 G0 Z13.
N118 X-6.5 Y153.436
N120 Z3.05
N122 G1 Z0.05
N124 X-5.
N126 G3 X-3.5 Y151.936 R1.5
N128 G1 X178.5
N130 G3 X180. Y153.436 R1.5
N132 G1 X181.5
N134 Z3.05
N136 G0 Z13.
N138 X-6.5 Y149.023
N140 Z3.05
N142 G1 Z0.05
N144 X-5.
N146 G3 X-3.5 Y147.523 R1.5
N148 G1 X178.5
N150 G3 X180. Y149.023 R1.5
N152 G1 X181.5
N154 Z3.05
N156 G0 Z13.
N158 X-6.5 Y144.61
N160 Z3.05
N162 G1 Z0.05
N164 X-5.
N166 G3 X-3.5 Y143.11 R1.5
N168 G1 X178.5
N170 G3 X180. Y144.61 R1.5
N172 G1 X181.5
N174 Z3.05
N176 G0 Z13.
N178 X-6.5 Y140.197
N180 Z3.05
N182 G1 Z0.05
N184 X-5.
N186 G3 X-3.5 Y138.697 R1.5
N188 G1 X178.5
N190 G3 X180. Y140.197 R1.5
N192 G1 X181.5
N194 Z3.05
N196 G0 Z13.
N198 X-6.5 Y135.784
N200 Z3.05
N202 G1 Z0.05
N204 X-5.
N206 G3 X-3.5 Y134.284 R1.5
N208 G1 X178.5
N210 G3 X180. Y135.784 R1.5
N212 G1 X181.5
N214 Z3.05
N216 G0 Z13.
N218 X-6.5 Y131.372
N220 Z3.05
N222 G1 Z0.05
N224 X-5.
N226 G3 X-3.5 Y129.872 R1.5
N228 G1 X178.5
N230 G3 X180. Y131.372 R1.5
N232 G1 X181.5
N234 Z3.05
N236 G0 Z13.
N238 X-6.5 Y126.959
N240 Z3.05
N242 G1 Z0.05
N244 X-5.
N246 G3 X-3.5 Y125.459 R1.5
N248 G1 X178.5
N250 G3 X180. Y126.959 R1.5
N252 G1 X181.5
N254 Z3.05
N256 G0 Z13.
N258 X-6.5 Y122.546
N260 Z3.05
N262 G1 Z0.05
N264 X-5.
N266 G3 X-3.5 Y121.046 R1.5
N268 G1 X178.5
N270 G3 X180. Y122.546 R1.5
N272 G1 X181.5
N274 Z3.05
N276 G0 Z13.
N278 X-6.5 Y118.133
N280 Z3.05
N282 G1 Z0.05
N284 X-5.
N286 G3 X-3.5 Y116.633 R1.5
N288 G1 X178.5
N290 G3 X180. Y118.133 R1.5
N292 G1 X181.5
N294 Z3.05
N296 G0 Z13.
N298 X-6.5 Y113.72
N300 Z3.05
N302 G1 Z0.05
N304 X-5.
N306 G3 X-3.5 Y112.22 R1.5
N308 G1 X178.5
N310 G3 X180. Y113.72 R1.5
N312 G1 X181.5
N314 Z3.05
N316 G0 Z13.
N318 X-6.5 Y109.308
N320 Z3.05
N322 G1 Z0.05
N324 X-5.
N326 G3 X-3.5 Y107.808 R1.5
N328 G1 X178.5
N330 G3 X180. Y109.308 R1.5
N332 G1 X181.5
N334 Z3.05
N336 G0 Z13.
N338 X-6.5 Y104.895
N340 Z3.05
N342 G1 Z0.05
N344 X-5.
N346 G3 X-3.5 Y103.395 R1.5
N348 G1 X178.5
N350 G3 X180. Y104.895 R1.5
N352 G1 X181.5
N354 Z3.05
N356 G0 Z13.
N358 X-6.5 Y100.482
N360 Z3.05
N362 G1 Z0.05
N364 X-5.
N366 G3 X-3.5 Y98.982 R1.5
N368 G1 X178.5
N370 G3 X180. Y100.482 R1.5
N372 G1 X181.5
N374 Z3.05
N376 G0 Z13.
N378 X-6.5 Y96.069
N380 Z3.05
N382 G1 Z0.05
N384 X-5.
N386 G3 X-3.5 Y94.569 R1.5
N388 G1 X178.5
N390 G3 X180. Y96.069 R1.5
N392 G1 X181.5
N394 Z3.05
N396 G0 Z13.
N398 X-6.5 Y91.656
N400 Z3.05
N402 G1 Z0.05
N404 X-5.
N406 G3 X-3.5 Y90.156 R1.5
N408 G1 X178.5
N410 G3 X180. Y91.656 R1.5
N412 G1 X181.5
N414 Z3.05
N416 G0 Z13.
N418 X-6.5 Y87.244
N420 Z3.05
N422 G1 Z0.05
N424 X-5.
N426 G3 X-3.5 Y85.744 R1.5
N428 G1 X178.5
N430 G3 X180. Y87.244 R1.5
N432 G1 X181.5
N434 Z3.05
N436 G0 Z13.
N438 X-6.5 Y82.831
N440 Z3.05
N442 G1 Z0.05
N444 X-5.
N446 G3 X-3.5 Y81.331 R1.5
N448 G1 X178.5
N450 G3 X180. Y82.831 R1.5
N452 G1 X181.5
N454 Z3.05
N456 G0 Z13.
N458 X-6.5 Y78.418
N460 Z3.05
N462 G1 Z0.05
N464 X-5.
N466 G3 X-3.5 Y76.918 R1.5
N468 G1 X178.5
N470 G3 X180. Y78.418 R1.5
N472 G1 X181.5
N474 Z3.05
N476 G0 Z13.
N478 X-6.5 Y74.005
N480 Z3.05
N482 G1 Z0.05
N484 X-5.
N486 G3 X-3.5 Y72.505 R1.5
N488 G1 X178.5
N490 G3 X180. Y74.005 R1.5
N492 G1 X181.5
N494 Z3.05
N496 G0 Z13.
N498 X-6.5 Y69.592
N500 Z3.05
N502 G1 Z0.05
N504 X-5.
N506 G3 X-3.5 Y68.092 R1.5
N508 G1 X178.5
N510 G3 X180. Y69.592 R1.5
N512 G1 X181.5
N514 Z3.05
N516 G0 Z13.
N518 X-6.5 Y65.18
N520 Z3.05
N522 G1 Z0.05
N524 X-5.
N526 G3 X-3.5 Y63.68 R1.5
N528 G1 X178.5
N530 G3 X180. Y65.18 R1.5
N532 G1 X181.5
N534 Z3.05
N536 G0 Z13.
N538 X-6.5 Y60.767
N540 Z3.05
N542 G1 Z0.05
N544 X-5.
N546 G3 X-3.5 Y59.267 R1.5
N548 G1 X178.5
N550 G3 X180. Y60.767 R1.5
N552 G1 X181.5
N554 Z3.05
N556 G0 Z13.
N558 X-6.5 Y56.354
N560 Z3.05
N562 G1 Z0.05
N564 X-5.
N566 G3 X-3.5 Y54.854 R1.5
N568 G1 X178.5
N570 G3 X180. Y56.354 R1.5
N572 G1 X181.5
N574 Z3.05
N576 G0 Z13.
N578 X-6.5 Y51.941
N580 Z3.05
N582 G1 Z0.05
N584 X-5.
N586 G3 X-3.5 Y50.441 R1.5
N588 G1 X178.5
N590 G3 X180. Y51.941 R1.5
N592 G1 X181.5
N594 Z3.05
N596 G0 Z13.
N598 X-6.5 Y47.528
N600 Z3.05
N602 G1 Z0.05
N604 X-5.
N606 G3 X-3.5 Y46.028 R1.5
N608 G1 X178.5
N610 G3 X180. Y47.528 R1.5
N612 G1 X181.5
N614 Z3.05
N616 G0 Z13.
N618 X-6.5 Y43.116
N620 Z3.05
N622 G1 Z0.05
N624 X-5.
N626 G3 X-3.5 Y41.616 R1.5
N628 G1 X178.5
N630 G3 X180. Y43.116 R1.5
N632 G1 X181.5
N634 Z3.05
N636 G0 Z13.
N638 X-6.5 Y38.703
N640 Z3.05
N642 G1 Z0.05
N644 X-5.
N646 G3 X-3.5 Y37.203 R1.5
N648 G1 X178.5
N650 G3 X180. Y38.703 R1.5
N652 G1 X181.5
N654 Z3.05
N656 G0 Z13.
N658 X-6.5 Y34.29
N660 Z3.05
N662 G1 Z0.05
N664 X-5.
N666 G3 X-3.5 Y32.79 R1.5
N668 G1 X178.5
N670 G3 X180. Y34.29 R1.5
N672 G1 X181.5
N674 Z3.05
N676 G0 Z13.
N678 X-6.5 Y29.877
N680 Z3.05
N682 G1 Z0.05
N684 X-5.
N686 G3 X-3.5 Y28.377 R1.5
N688 G1 X178.5
N690 G3 X180. Y29.877 R1.5
N692 G1 X181.5
N694 Z3.05
N696 G0 Z13.
N698 X-6.5 Y25.464
N700 Z3.05
N702 G1 Z0.05
N704 X-5.
N706 G3 X-3.5 Y23.964 R1.5
N708 G1 X178.5
N710 G3 X180. Y25.464 R1.5
N712 G1 X181.5
N714 Z3.05
N716 G0 Z13.
N718 X-6.5 Y21.052
N720 Z3.05
N722 G1 Z0.05
N724 X-5.
N726 G3 X-3.5 Y19.552 R1.5
N728 G1 X178.5
N730 G3 X180. Y21.052 R1.5
N732 G1 X181.5
N734 Z3.05
N736 G0 Z13.
N738 X-6.5 Y16.639
N740 Z3.05
N742 G1 Z0.05
N744 X-5.
N746 G3 X-3.5 Y15.139 R1.5
N748 G1 X178.5
N750 G3 X180. Y16.639 R1.5
N752 G1 X181.5
N754 Z3.05
N756 G0 Z13.
N758 X-6.5 Y12.226
N760 Z3.05
N762 G1 Z0.05
N764 X-5.
N766 G3 X-3.5 Y10.726 R1.5
N768 G1 X178.5
N770 G3 X180. Y12.226 R1.5
N772 G1 X181.5
N774 Z3.05
N776 G0 Z13.
N778 X-6.5 Y7.813
N780 Z3.05
N782 G1 Z0.05
N784 X-5.
N786 G3 X-3.5 Y6.313 R1.5
N788 G1 X178.5
N790 G3 X180. Y7.813 R1.5
N792 G1 X181.5
N794 Z3.05
N796 G0 Z13.
N798 X-6.5 Y3.4
N800 Z3.05
N802 G1 Z0.05
N804 X-5.
N806 G3 X-3.5 Y1.9 R1.5
N808 G1 X178.5
N810 G3 X180. Y3.4 R1.5
N812 G1 X181.5
N814 Z3.05
N816 G0 Z13.
N818 X-5. Y181.098
N820 Z3.
N822 G1 Z0.
N824 Y175.5
N826 G3 X-3.5 Y174. R1.5
N828 G1 X178.5
N830 G3 X180. Y175.5 R1.5
N832 G1 Y181.098
N834 Z3.
N836 G0 Z13.
N838 X-6.5 Y171.087
N840 Z3.
N842 G1 Z0.
N844 X-5.
N846 G3 X-3.5 Y169.587 R1.5
N848 G1 X178.5
N850 G3 X180. Y171.087 R1.5
N852 G1 X181.5
N854 Z3.
N856 G0 Z13.
N858 X-6.5 Y166.674
N860 Z3.
N862 G1 Z0.
N864 X-5.
N866 G3 X-3.5 Y165.174 R1.5
N868 G1 X178.5
N870 G3 X180. Y166.674 R1.5
N872 G1 X181.5
N874 Z3.
N876 G0 Z13.
N878 X-6.5 Y162.261
N880 Z3.
N882 G1 Z0.
N884 X-5.
N886 G3 X-3.5 Y160.761 R1.5
N888 G1 X178.5
N890 G3 X180. Y162.261 R1.5
N892 G1 X181.5
N894 Z3.
N896 G0 Z13.
N898 X-6.5 Y157.848
N900 Z3.
N902 G1 Z0.
N904 X-5.
N906 G3 X-3.5 Y156.348 R1.5
N908 G1 X178.5
N910 G3 X180. Y157.848 R1.5
N912 G1 X181.5
N914 Z3.
N916 G0 Z13.
N918 X-6.5 Y153.436
N920 Z3.
N922 G1 Z0.
N924 X-5.
N926 G3 X-3.5 Y151.936 R1.5
N928 G1 X178.5
N930 G3 X180. Y153.436 R1.5
N932 G1 X181.5
N934 Z3.
N936 G0 Z13.
N938 X-6.5 Y149.023
N940 Z3.
N942 G1 Z0.
N944 X-5.
N946 G3 X-3.5 Y147.523 R1.5
N948 G1 X178.5
N950 G3 X180. Y149.023 R1.5
N952 G1 X181.5
N954 Z3.
N956 G0 Z13.
N958 X-6.5 Y144.61
N960 Z3.
N962 G1 Z0.
N964 X-5.
N966 G3 X-3.5 Y143.11 R1.5
N968 G1 X178.5
N970 G3 X180. Y144.61 R1.5
N972 G1 X181.5
N974 Z3.
N976 G0 Z13.
N978 X-6.5 Y140.197
N980 Z3.
N982 G1 Z0.
N984 X-5.
N986 G3 X-3.5 Y138.697 R1.5
N988 G1 X178.5
N990 G3 X180. Y140.197 R1.5
N992 G1 X181.5
N994 Z3.
N996 G0 Z13.
N998 X-6.5 Y135.784
N1000 Z3.
N1002 G1 Z0.
N1004 X-5.
N1006 G3 X-3.5 Y134.284 R1.5
N1008 G1 X178.5
N1010 G3 X180. Y135.784 R1.5
N1012 G1 X181.5
N1014 Z3.
N1016 G0 Z13.
N1018 X-6.5 Y131.372
N1020 Z3.
N1022 G1 Z0.
N1024 X-5.
N1026 G3 X-3.5 Y129.872 R1.5
N1028 G1 X178.5
N1030 G3 X180. Y131.372 R1.5
N1032 G1 X181.5
N1034 Z3.
N1036 G0 Z13.
N1038 X-6.5 Y126.959
N1040 Z3.
N1042 G1 Z0.
N1044 X-5.
N1046 G3 X-3.5 Y125.459 R1.5
N1048 G1 X178.5
N1050 G3 X180. Y126.959 R1.5
N1052 G1 X181.5
N1054 Z3.
N1056 G0 Z13.
N1058 X-6.5 Y122.546
N1060 Z3.
N1062 G1 Z0.
N1064 X-5.
N1066 G3 X-3.5 Y121.046 R1.5
N1068 G1 X178.5
N1070 G3 X180. Y122.546 R1.5
N1072 G1 X181.5
N1074 Z3.
N1076 G0 Z13.
N1078 X-6.5 Y118.133
N1080 Z3.
N1082 G1 Z0.
N1084 X-5.
N1086 G3 X-3.5 Y116.633 R1.5
N1088 G1 X178.5
N1090 G3 X180. Y118.133 R1.5
N1092 G1 X181.5
N1094 Z3.
N1096 G0 Z13.
N1098 X-6.5 Y113.72
N1100 Z3.
N1102 G1 Z0.
N1104 X-5.
N1106 G3 X-3.5 Y112.22 R1.5
N1108 G1 X178.5
N1110 G3 X180. Y113.72 R1.5
N1112 G1 X181.5
N1114 Z3.
N1116 G0 Z13.
N1118 X-6.5 Y109.308
N1120 Z3.
N1122 G1 Z0.
N1124 X-5.
N1126 G3 X-3.5 Y107.808 R1.5
N1128 G1 X178.5
N1130 G3 X180. Y109.308 R1.5
N1132 G1 X181.5
N1134 Z3.
N1136 G0 Z13.
N1138 X-6.5 Y104.895
N1140 Z3.
N1142 G1 Z0.
N1144 X-5.
N1146 G3 X-3.5 Y103.395 R1.5
N1148 G1 X178.5
N1150 G3 X180. Y104.895 R1.5
N1152 G1 X181.5
N1154 Z3.
N1156 G0 Z13.
N1158 X-6.5 Y100.482
N1160 Z3.
N1162 G1 Z0.
N1164 X-5.
N1166 G3 X-3.5 Y98.982 R1.5
N1168 G1 X178.5
N1170 G3 X180. Y100.482 R1.5
N1172 G1 X181.5
N1174 Z3.
N1176 G0 Z13.
N1178 X-6.5 Y96.069
N1180 Z3.
N1182 G1 Z0.
N1184 X-5.
N1186 G3 X-3.5 Y94.569 R1.5
N1188 G1 X178.5
N1190 G3 X180. Y96.069 R1.5
N1192 G1 X181.5
N1194 Z3.
N1196 G0 Z13.
N1198 X-6.5 Y91.656
N1200 Z3.
N1202 G1 Z0.
N1204 X-5.
N1206 G3 X-3.5 Y90.156 R1.5
N1208 G1 X178.5
N1210 G3 X180. Y91.656 R1.5
N1212 G1 X181.5
N1214 Z3.
N1216 G0 Z13.
N1218 X-6.5 Y87.244
N1220 Z3.
N1222 G1 Z0.
N1224 X-5.
N1226 G3 X-3.5 Y85.744 R1.5
N1228 G1 X178.5
N1230 G3 X180. Y87.244 R1.5
N1232 G1 X181.5
N1234 Z3.
N1236 G0 Z13.
N1238 X-6.5 Y82.831
N1240 Z3.
N1242 G1 Z0.
N1244 X-5.
N1246 G3 X-3.5 Y81.331 R1.5
N1248 G1 X178.5
N1250 G3 X180. Y82.831 R1.5
N1252 G1 X181.5
N1254 Z3.
N1256 G0 Z13.
N1258 X-6.5 Y78.418
N1260 Z3.
N1262 G1 Z0.
N1264 X-5.
N1266 G3 X-3.5 Y76.918 R1.5
N1268 G1 X178.5
N1270 G3 X180. Y78.418 R1.5
N1272 G1 X181.5
N1274 Z3.
N1276 G0 Z13.
N1278 X-6.5 Y74.005
N1280 Z3.
N1282 G1 Z0.
N1284 X-5.
N1286 G3 X-3.5 Y72.505 R1.5
N1288 G1 X178.5
N1290 G3 X180. Y74.005 R1.5
N1292 G1 X181.5
N1294 Z3.
N1296 G0 Z13.
N1298 X-6.5 Y69.592
N1300 Z3.
N1302 G1 Z0.
N1304 X-5.
N1306 G3 X-3.5 Y68.092 R1.5
N1308 G1 X178.5
N1310 G3 X180. Y69.592 R1.5
N1312 G1 X181.5
N1314 Z3.
N1316 G0 Z13.
N1318 X-6.5 Y65.18
N1320 Z3.
N1322 G1 Z0.
N1324 X-5.
N1326 G3 X-3.5 Y63.68 R1.5
N1328 G1 X178.5
N1330 G3 X180. Y65.18 R1.5
N1332 G1 X181.5
N1334 Z3.
N1336 G0 Z13.
N1338 X-6.5 Y60.767
N1340 Z3.
N1342 G1 Z0.
N1344 X-5.
N1346 G3 X-3.5 Y59.267 R1.5
N1348 G1 X178.5
N1350 G3 X180. Y60.767 R1.5
N1352 G1 X181.5
N1354 Z3.
N1356 G0 Z13.
N1358 X-6.5 Y56.354
N1360 Z3.
N1362 G1 Z0.
N1364 X-5.
N1366 G3 X-3.5 Y54.854 R1.5
N1368 G1 X178.5
N1370 G3 X180. Y56.354 R1.5
N1372 G1 X181.5
N1374 Z3.
N1376 G0 Z13.
N1378 X-6.5 Y51.941
N1380 Z3.
N1382 G1 Z0.
N1384 X-5.
N1386 G3 X-3.5 Y50.441 R1.5
N1388 G1 X178.5
N1390 G3 X180. Y51.941 R1.5
N1392 G1 X181.5
N1394 Z3.
N1396 G0 Z13.
N1398 X-6.5 Y47.528
N1400 Z3.
N1402 G1 Z0.
N1404 X-5.
N1406 G3 X-3.5 Y46.028 R1.5
N1408 G1 X178.5
N1410 G3 X180. Y47.528 R1.5
N1412 G1 X181.5
N1414 Z3.
N1416 G0 Z13.
N1418 X-6.5 Y43.116
N1420 Z3.
N1422 G1 Z0.
N1424 X-5.
N1426 G3 X-3.5 Y41.616 R1.5
N1428 G1 X178.5
N1430 G3 X180. Y43.116 R1.5
N1432 G1 X181.5
N1434 Z3.
N1436 G0 Z13.
N1438 X-6.5 Y38.703
N1440 Z3.
N1442 G1 Z0.
N1444 X-5.
N1446 G3 X-3.5 Y37.203 R1.5
N1448 G1 X178.5
N1450 G3 X180. Y38.703 R1.5
N1452 G1 X181.5
N1454 Z3.
N1456 G0 Z13.
N1458 X-6.5 Y34.29
N1460 Z3.
N1462 G1 Z0.
N1464 X-5.
N1466 G3 X-3.5 Y32.79 R1.5
N1468 G1 X178.5
N1470 G3 X180. Y34.29 R1.5
N1472 G1 X181.5
N1474 Z3.
N1476 G0 Z13.
N1478 X-6.5 Y29.877
N1480 Z3.
N1482 G1 Z0.
N1484 X-5.
N1486 G3 X-3.5 Y28.377 R1.5
N1488 G1 X178.5
N1490 G3 X180. Y29.877 R1.5
N1492 G1 X181.5
N1494 Z3.
N1496 G0 Z13.
N1498 X-6.5 Y25.464
N1500 Z3.
N1502 G1 Z0.
N1504 X-5.
N1506 G3 X-3.5 Y23.964 R1.5
N1508 G1 X178.5
N1510 G3 X180. Y25.464 R1.5
N1512 G1 X181.5
N1514 Z3.
N1516 G0 Z13.
N1518 X-6.5 Y21.052
N1520 Z3.
N1522 G1 Z0.
N1524 X-5.
N1526 G3 X-3.5 Y19.552 R1.5
N1528 G1 X178.5
N1530 G3 X180. Y21.052 R1.5
N1532 G1 X181.5
N1534 Z3.
N1536 G0 Z13.
N1538 X-6.5 Y16.639
N1540 Z3.
N1542 G1 Z0.
N1544 X-5.
N1546 G3 X-3.5 Y15.139 R1.5
N1548 G1 X178.5
N1550 G3 X180. Y16.639 R1.5
N1552 G1 X181.5
N1554 Z3.
N1556 G0 Z13.
N1558 X-6.5 Y12.226
N1560 Z3.
N1562 G1 Z0.
N1564 X-5.
N1566 G3 X-3.5 Y10.726 R1.5
N1568 G1 X178.5
N1570 G3 X180. Y12.226 R1.5
N1572 G1 X181.5
N1574 Z3.
N1576 G0 Z13.
N1578 X-6.5 Y7.813
N1580 Z3.
N1582 G1 Z0.
N1584 X-5.
N1586 G3 X-3.5 Y6.313 R1.5
N1588 G1 X178.5
N1590 G3 X180. Y7.813 R1.5
N1592 G1 X181.5
N1594 Z3.
N1596 G0 Z13.
N1598 X-6.5 Y3.4
N1600 Z3.
N1602 G1 Z0.
N1604 X-5.
N1606 G3 X-3.5 Y1.9 R1.5
N1608 G1 X178.5
N1610 G3 X180. Y3.4 R1.5
N1612 G1 X181.5
N1614 Z3.
N1616 G0 Z13.
N1618 M5
N1620 M2
